PROBA-1                 
1 26958U 01049B   26170.85811485  .00000575  00000+0  41159-4 0  9990
2 26958  97.9594 179.4839 0056465 113.1398 247.5792 15.07498258344026
CUTE-1 (CO-55)          
1 27844U 03031E   26170.56610412  .00000202  00000+0  10624-3 0  9992
2 27844  98.6736 179.0951 0009689 171.1603 188.9749 14.24336935192018
CUBESAT XI-IV (CO-57)   
1 27848U 03031J   26170.48547204  .00000165  00000+0  91471-4 0  9993
2 27848  98.6765 178.7263 0009188 190.0962 170.0034 14.23621824191705
APRIZESAT 4             
1 35684U 09041D   26170.68458008  .00000441  00000+0  59451-4 0  9991
2 35684  98.1412 246.0549 0042247 314.7752  45.0028 14.83882014911730
APRIZESAT 3             
1 35686U 09041F   26170.37271590  .00001570  00000+0  13950-3 0  9995
2 35686  98.2067 323.7010 0062798  60.6968 300.0508 14.96248332916706
PROBA-2                 
1 36037U 09059B   26170.51006631  .00000112  00000+0  36558-4 0  9994
2 36037  98.2451 353.8305 0011942 274.0860  85.8972 14.54863196881868
APRIZESAT 5             
1 37792U 11044E   26170.70959072  .00000837  00000+0  11297-3 0  9993
2 37792  98.2452 103.8215 0052140 356.2248   3.8563 14.81080702799160
APRIZESAT 6             
1 37793U 11044F   26170.32505516  .00000602  00000+0  92082-4 0  9994
2 37793  98.2362  80.8683 0044474  79.4064  36.4105 14.76918699797469
PROBA-V                 
1 39159U 13021A   26170.50883740  .00000042  00000+0  36405-4 0  9992
2 39159  98.3584 149.0009 0005221 117.9671 242.2038 14.23597276681441
APRIZESAT 7             
1 39416U 13066A   26170.83736970  .00000738  00000+0  78478-4 0  9993
2 39416  97.7709 124.0192 0035208 200.2744 159.7079 14.91568577681624
APRIZESAT 8             
1 39425U 13066K   26170.36106708  .00000702  00000+0  82015-4 0  9994
2 39425  97.8220 117.7985 0044362 279.1592  80.4607 14.87656055679997
BUGSAT-1 (TITA)         
1 40014U 14033E   26170.80916411  .00003898  00000+0  20722-3 0  9999
2 40014  98.0424 263.5110 0028244 169.6182 190.5638 15.15606436656230
SAUDISAT 4              
1 40016U 14033G   26170.35063119  .00000502  00000+0  72734-4 0  9999
2 40016  97.7586 316.4104 0046087  67.1647 293.4423 14.79547180646391
APRIZESAT 9             
1 40018U 14033J   26170.31170818  .00000552  00000+0  88433-4 0  9990
2 40018  97.9064 303.4584 0065857 192.3075 167.6528 14.74217021643877
APRIZESAT 10            
1 40019U 14033K   26170.57563661  .00000334  00000+0  60551-4 0  9990
2 40019  97.9654 297.4818 0077409 266.0770  93.1584 14.70884168642605
TECHDEMOSAT-1 (TDS-1)   
1 40076U 14037H   26170.47276328  .00006839  00000+0  38815-3 0  9990
2 40076  98.3816 162.9119 0004637 255.6132 104.4583 15.13320540648576
TECHNOSAT               
1 42829U 17042E   26170.37690048  .00002893  00000+0  20744-3 0  9993
2 42829  97.4295 327.9510 0019112  87.3481 272.9933 15.04974319487035
FLYING LAPTOP           
1 42831U 17042G   26170.85181932  .00002975  00000+0  23569-3 0  9995
2 42831  97.4702 326.2820 0019679 113.0315 247.2988 15.01160999486850
HAWK-A                  
1 43765U 18099H   26170.71081534  .00004986  00000+0  20173-3 0  9999
2 43765  97.3908 222.9140 0033056 276.5231  83.2244 15.24666904413482
HAWK-B                  
1 43794U 18099AN  26170.66965219  .00004549  00000+0  19500-3 0  9993
2 43794  97.3956 222.2832 0030360 295.7385  64.0719 15.22847511413416
HAWK-C                  
1 43799U 18099AT  26170.68164611  .00006005  00000+0  21698-3 0  9997
2 43799  97.3885 223.8098 0038717 276.5465  83.1367 15.28130963414293
SALSAT                  
1 46495U 20068K   26170.82728722  .00006419  00000+0  22493-3 0  9990
2 46495  97.8854 174.0526 0007893 297.0230  63.0203 15.29831081315760
HAWK-2C                 
1 47502U 21006CT  26170.69518062  .00005224  00000+0  15761-3 0  9995
2 47502  97.2274 214.9552 0006974 177.0555 183.0731 15.34688462299881
HAWK-2A                 
1 47505U 21006CW  26170.69764865  .00005202  00000+0  15692-3 0  9991
2 47505  97.2315 215.6368 0006411 179.8957 180.2289 15.34703167299882
HAWK-2B                 
1 47508U 21006CZ  26170.69303845  .00005801  00000+0  17417-3 0  9993
2 47508  97.2186 213.9601 0007007 178.2867 181.8402 15.34794250299884
HAWK-3B                 
1 48931U 21059BE  26170.49179253  .00044803  00000+0  37713-3 0  9990
2 48931  97.6656   7.4175 0003201 318.2417  41.8600 15.69734249278211
HAWK-3C                 
1 48948U 21059BX  26170.49147182  .00044376  00000+0  37360-3 0  9997
2 48948  97.6775  13.1066 0003519 320.4197  39.6807 15.69730324278210
HAWK-3A                 
1 48957U 21059CG  26170.49131177  .00039274  00000+0  33085-3 0  9995
2 48957  97.6723  10.3100 0003418 322.4094  37.6928 15.69740181278211
HAWK-5C                 
1 52754U 22057Y   26170.43057931  .00016618  00000+0  28302-3 0  9996
2 52754  97.6609 330.2418 0004855  76.7039 283.4754 15.51460427226690
HAWK-5B                 
1 52756U 22057AA  26170.43042608  .00016423  00000+0  27968-3 0  9994
2 52756  97.6615 328.5910 0005536  69.4340 290.7504 15.51461534226691
